<?xml version="1.0" encoding="UTF-8"?>
<gpx version="1.1" creator="make_demo.py" xmlns="http://www.topografix.com/GPX/1/1">
  <metadata><name>Demo loop</name></metadata>
  <trk><name>Demo loop</name><trkseg>
    <trkpt lat="46.1400000" lon="11.0853075"><ele>819.7</ele></trkpt>
    <trkpt lat="46.1402833" lon="11.0855562"><ele>820.9</ele></trkpt>
    <trkpt lat="46.1405665" lon="11.0858038"><ele>820.5</ele></trkpt>
    <trkpt lat="46.1408496" lon="11.0860501"><ele>820.8</ele></trkpt>
    <trkpt lat="46.1411326" lon="11.0862951"><ele>820.5</ele></trkpt>
    <trkpt lat="46.1414152" lon="11.0865389"><ele>821.6</ele></trkpt>
    <trkpt lat="46.1416975" lon="11.0867814"><ele>823.4</ele></trkpt>
    <trkpt lat="46.1419794" lon="11.0870225"><ele>823.1</ele></trkpt>
    <trkpt lat="46.1422609" lon="11.0872624"><ele>824.1</ele></trkpt>
    <trkpt lat="46.1425418" lon="11.0875009"><ele>823.6</ele></trkpt>
    <trkpt lat="46.1428222" lon="11.0877381"><ele>824.1</ele></trkpt>
    <trkpt lat="46.1431018" lon="11.0879740"><ele>824.3</ele></trkpt>
    <trkpt lat="46.1433808" lon="11.0882084"><ele>822.6</ele></trkpt>
    <trkpt lat="46.1436590" lon="11.0884415"><ele>825.8</ele></trkpt>
    <trkpt lat="46.1439363" lon="11.0886732"><ele>825.7</ele></trkpt>
    <trkpt lat="46.1442127" lon="11.0889034"><ele>826.1</ele></trkpt>
    <trkpt lat="46.1444882" lon="11.0891323"><ele>824.1</ele></trkpt>
    <trkpt lat="46.1447625" lon="11.0893597"><ele>824.4</ele></trkpt>
    <trkpt lat="46.1450358" lon="11.0895856"><ele>825.7</ele></trkpt>
    <trkpt lat="46.1453080" lon="11.0898101"><ele>826.5</ele></trkpt>
    <trkpt lat="46.1455788" lon="11.0900331"><ele>827.8</ele></trkpt>
    <trkpt lat="46.1458485" lon="11.0902546"><ele>827.7</ele></trkpt>
    <trkpt lat="46.1461167" lon="11.0904747"><ele>828.7</ele></trkpt>
    <trkpt lat="46.1463835" lon="11.0906932"><ele>827.8</ele></trkpt>
    <trkpt lat="46.1466489" lon="11.0909101"><ele>829.2</ele></trkpt>
    <trkpt lat="46.1469127" lon="11.0911256"><ele>829.7</ele></trkpt>
    <trkpt lat="46.1471750" lon="11.0913394"><ele>828.9</ele></trkpt>
    <trkpt lat="46.1474355" lon="11.0915518"><ele>831.9</ele></trkpt>
    <trkpt lat="46.1476944" lon="11.0917625"><ele>831.0</ele></trkpt>
    <trkpt lat="46.1479515" lon="11.0919717"><ele>832.1</ele></trkpt>
    <trkpt lat="46.1482068" lon="11.0921793"><ele>830.4</ele></trkpt>
    <trkpt lat="46.1484602" lon="11.0923852"><ele>830.7</ele></trkpt>
    <trkpt lat="46.1487116" lon="11.0925896"><ele>831.5</ele></trkpt>
    <trkpt lat="46.1489611" lon="11.0927923"><ele>832.1</ele></trkpt>
    <trkpt lat="46.1492085" lon="11.0929934"><ele>833.3</ele></trkpt>
    <trkpt lat="46.1494538" lon="11.0931928"><ele>833.3</ele></trkpt>
    <trkpt lat="46.1496969" lon="11.0933906"><ele>832.9</ele></trkpt>
    <trkpt lat="46.1499378" lon="11.0935868"><ele>832.7</ele></trkpt>
    <trkpt lat="46.1501765" lon="11.0937812"><ele>833.5</ele></trkpt>
    <trkpt lat="46.1504129" lon="11.0939740"><ele>835.8</ele></trkpt>
    <trkpt lat="46.1506469" lon="11.0941651"><ele>833.9</ele></trkpt>
    <trkpt lat="46.1508784" lon="11.0943544"><ele>835.5</ele></trkpt>
    <trkpt lat="46.1511076" lon="11.0945421"><ele>836.0</ele></trkpt>
    <trkpt lat="46.1513342" lon="11.0947280"><ele>834.3</ele></trkpt>
    <trkpt lat="46.1515582" lon="11.0949123"><ele>836.4</ele></trkpt>
    <trkpt lat="46.1517797" lon="11.0950948"><ele>838.1</ele></trkpt>
    <trkpt lat="46.1519985" lon="11.0952755"><ele>834.8</ele></trkpt>
    <trkpt lat="46.1522146" lon="11.0954545"><ele>837.1</ele></trkpt>
    <trkpt lat="46.1524279" lon="11.0956318"><ele>837.7</ele></trkpt>
    <trkpt lat="46.1526385" lon="11.0958072"><ele>837.3</ele></trkpt>
    <trkpt lat="46.1528463" lon="11.0959809"><ele>839.1</ele></trkpt>
    <trkpt lat="46.1530511" lon="11.0961529"><ele>838.8</ele></trkpt>
    <trkpt lat="46.1532531" lon="11.0963230"><ele>837.7</ele></trkpt>
    <trkpt lat="46.1534522" lon="11.0964914"><ele>840.6</ele></trkpt>
    <trkpt lat="46.1536482" lon="11.0966579"><ele>840.9</ele></trkpt>
    <trkpt lat="46.1538413" lon="11.0968227"><ele>843.7</ele></trkpt>
    <trkpt lat="46.1540313" lon="11.0969857"><ele>846.8</ele></trkpt>
    <trkpt lat="46.1542182" lon="11.0971468"><ele>848.2</ele></trkpt>
    <trkpt lat="46.1544019" lon="11.0973061"><ele>850.5</ele></trkpt>
    <trkpt lat="46.1545825" lon="11.0974636"><ele>851.4</ele></trkpt>
    <trkpt lat="46.1547600" lon="11.0976193"><ele>856.1</ele></trkpt>
    <trkpt lat="46.1549342" lon="11.0977731"><ele>857.3</ele></trkpt>
    <trkpt lat="46.1551051" lon="11.0979252"><ele>860.0</ele></trkpt>
    <trkpt lat="46.1552728" lon="11.0980753"><ele>861.6</ele></trkpt>
    <trkpt lat="46.1554372" lon="11.0982236"><ele>864.5</ele></trkpt>
    <trkpt lat="46.1555982" lon="11.0983701"><ele>867.5</ele></trkpt>
    <trkpt lat="46.1557559" lon="11.0985147"><ele>872.1</ele></trkpt>
    <trkpt lat="46.1559101" lon="11.0986575"><ele>871.0</ele></trkpt>
    <trkpt lat="46.1560610" lon="11.0987984"><ele>874.1</ele></trkpt>
    <trkpt lat="46.1562085" lon="11.0989375"><ele>878.6</ele></trkpt>
    <trkpt lat="46.1563525" lon="11.0990746"><ele>882.4</ele></trkpt>
    <trkpt lat="46.1564930" lon="11.0992100"><ele>884.0</ele></trkpt>
    <trkpt lat="46.1566300" lon="11.0993434"><ele>883.8</ele></trkpt>
    <trkpt lat="46.1567636" lon="11.0994750"><ele>885.7</ele></trkpt>
    <trkpt lat="46.1568936" lon="11.0996047"><ele>891.4</ele></trkpt>
    <trkpt lat="46.1570200" lon="11.0997325"><ele>892.7</ele></trkpt>
    <trkpt lat="46.1571429" lon="11.0998585"><ele>894.9</ele></trkpt>
    <trkpt lat="46.1572623" lon="11.0999826"><ele>899.7</ele></trkpt>
    <trkpt lat="46.1573780" lon="11.1001048"><ele>902.4</ele></trkpt>
    <trkpt lat="46.1574902" lon="11.1002251"><ele>903.9</ele></trkpt>
    <trkpt lat="46.1575988" lon="11.1003436"><ele>906.5</ele></trkpt>
    <trkpt lat="46.1577038" lon="11.1004602"><ele>909.3</ele></trkpt>
    <trkpt lat="46.1578051" lon="11.1005749"><ele>913.1</ele></trkpt>
    <trkpt lat="46.1579028" lon="11.1006877"><ele>914.6</ele></trkpt>
    <trkpt lat="46.1579970" lon="11.1007986"><ele>917.0</ele></trkpt>
    <trkpt lat="46.1580874" lon="11.1009077"><ele>919.6</ele></trkpt>
    <trkpt lat="46.1581743" lon="11.1010149"><ele>919.8</ele></trkpt>
    <trkpt lat="46.1582575" lon="11.1011202"><ele>925.5</ele></trkpt>
    <trkpt lat="46.1583371" lon="11.1012236"><ele>927.6</ele></trkpt>
    <trkpt lat="46.1584130" lon="11.1013252"><ele>929.7</ele></trkpt>
    <trkpt lat="46.1584854" lon="11.1014249"><ele>929.5</ele></trkpt>
    <trkpt lat="46.1585541" lon="11.1015228"><ele>933.5</ele></trkpt>
    <trkpt lat="46.1586191" lon="11.1016187"><ele>937.7</ele></trkpt>
    <trkpt lat="46.1586806" lon="11.1017129"><ele>937.3</ele></trkpt>
    <trkpt lat="46.1587385" lon="11.1018051"><ele>941.7</ele></trkpt>
    <trkpt lat="46.1587927" lon="11.1018955"><ele>945.5</ele></trkpt>
    <trkpt lat="46.1588434" lon="11.1019840"><ele>945.5</ele></trkpt>
    <trkpt lat="46.1588905" lon="11.1020707"><ele>951.3</ele></trkpt>
    <trkpt lat="46.1589340" lon="11.1021556"><ele>952.6</ele></trkpt>
    <trkpt lat="46.1589740" lon="11.1022386"><ele>954.4</ele></trkpt>
    <trkpt lat="46.1590105" lon="11.1023197"><ele>957.5</ele></trkpt>
    <trkpt lat="46.1590434" lon="11.1023990"><ele>960.4</ele></trkpt>
    <trkpt lat="46.1590728" lon="11.1024765"><ele>962.3</ele></trkpt>
    <trkpt lat="46.1590987" lon="11.1025522"><ele>966.0</ele></trkpt>
    <trkpt lat="46.1591212" lon="11.1026260"><ele>966.6</ele></trkpt>
    <trkpt lat="46.1591402" lon="11.1026981"><ele>969.4</ele></trkpt>
    <trkpt lat="46.1591558" lon="11.1027683"><ele>973.5</ele></trkpt>
    <trkpt lat="46.1591679" lon="11.1028367"><ele>974.9</ele></trkpt>
    <trkpt lat="46.1591767" lon="11.1029033"><ele>976.5</ele></trkpt>
    <trkpt lat="46.1591822" lon="11.1029681"><ele>981.0</ele></trkpt>
    <trkpt lat="46.1591843" lon="11.1030311"><ele>984.1</ele></trkpt>
    <trkpt lat="46.1591831" lon="11.1030924"><ele>984.6</ele></trkpt>
    <trkpt lat="46.1591786" lon="11.1031518"><ele>986.1</ele></trkpt>
    <trkpt lat="46.1591709" lon="11.1032095"><ele>990.0</ele></trkpt>
    <trkpt lat="46.1591599" lon="11.1032655"><ele>992.5</ele></trkpt>
    <trkpt lat="46.1591458" lon="11.1033197"><ele>994.9</ele></trkpt>
    <trkpt lat="46.1591285" lon="11.1033721"><ele>999.3</ele></trkpt>
    <trkpt lat="46.1591081" lon="11.1034228"><ele>999.2</ele></trkpt>
    <trkpt lat="46.1590846" lon="11.1034718"><ele>1004.3</ele></trkpt>
    <trkpt lat="46.1590581" lon="11.1035190"><ele>1004.0</ele></trkpt>
    <trkpt lat="46.1590285" lon="11.1035645"><ele>1007.1</ele></trkpt>
    <trkpt lat="46.1589960" lon="11.1036084"><ele>1011.2</ele></trkpt>
    <trkpt lat="46.1589605" lon="11.1036505"><ele>1014.3</ele></trkpt>
    <trkpt lat="46.1589222" lon="11.1036909"><ele>1016.5</ele></trkpt>
    <trkpt lat="46.1588809" lon="11.1037297"><ele>1018.5</ele></trkpt>
    <trkpt lat="46.1588369" lon="11.1037667"><ele>1020.8</ele></trkpt>
    <trkpt lat="46.1587900" lon="11.1038021"><ele>1023.4</ele></trkpt>
    <trkpt lat="46.1587405" lon="11.1038359"><ele>1026.4</ele></trkpt>
    <trkpt lat="46.1586882" lon="11.1038680"><ele>1028.1</ele></trkpt>
    <trkpt lat="46.1586333" lon="11.1038985"><ele>1031.1</ele></trkpt>
    <trkpt lat="46.1585758" lon="11.1039274"><ele>1034.0</ele></trkpt>
    <trkpt lat="46.1585158" lon="11.1039546"><ele>1035.9</ele></trkpt>
    <trkpt lat="46.1584532" lon="11.1039803"><ele>1039.3</ele></trkpt>
    <trkpt lat="46.1583882" lon="11.1040043"><ele>1041.6</ele></trkpt>
    <trkpt lat="46.1583208" lon="11.1040268"><ele>1045.8</ele></trkpt>
    <trkpt lat="46.1582510" lon="11.1040477"><ele>1046.5</ele></trkpt>
    <trkpt lat="46.1581790" lon="11.1040670"><ele>1048.2</ele></trkpt>
    <trkpt lat="46.1581046" lon="11.1040848"><ele>1050.8</ele></trkpt>
    <trkpt lat="46.1580281" lon="11.1041011"><ele>1053.7</ele></trkpt>
    <trkpt lat="46.1579494" lon="11.1041158"><ele>1057.3</ele></trkpt>
    <trkpt lat="46.1578686" lon="11.1041291"><ele>1058.4</ele></trkpt>
    <trkpt lat="46.1577858" lon="11.1041408"><ele>1061.8</ele></trkpt>
    <trkpt lat="46.1577009" lon="11.1041510"><ele>1065.9</ele></trkpt>
    <trkpt lat="46.1576142" lon="11.1041598"><ele>1063.6</ele></trkpt>
    <trkpt lat="46.1575255" lon="11.1041671"><ele>1067.7</ele></trkpt>
    <trkpt lat="46.1574351" lon="11.1041730"><ele>1071.8</ele></trkpt>
    <trkpt lat="46.1573429" lon="11.1041774"><ele>1074.5</ele></trkpt>
    <trkpt lat="46.1572490" lon="11.1041804"><ele>1076.9</ele></trkpt>
    <trkpt lat="46.1571534" lon="11.1041820"><ele>1078.7</ele></trkpt>
    <trkpt lat="46.1570562" lon="11.1041822"><ele>1082.4</ele></trkpt>
    <trkpt lat="46.1569576" lon="11.1041810"><ele>1084.5</ele></trkpt>
    <trkpt lat="46.1568574" lon="11.1041784"><ele>1086.2</ele></trkpt>
    <trkpt lat="46.1567558" lon="11.1041745"><ele>1092.0</ele></trkpt>
    <trkpt lat="46.1566529" lon="11.1041692"><ele>1092.3</ele></trkpt>
    <trkpt lat="46.1565488" lon="11.1041626"><ele>1093.8</ele></trkpt>
    <trkpt lat="46.1564434" lon="11.1041548"><ele>1096.8</ele></trkpt>
    <trkpt lat="46.1563368" lon="11.1041456"><ele>1099.2</ele></trkpt>
    <trkpt lat="46.1562291" lon="11.1041351"><ele>1102.0</ele></trkpt>
    <trkpt lat="46.1561204" lon="11.1041234"><ele>1101.6</ele></trkpt>
    <trkpt lat="46.1560108" lon="11.1041104"><ele>1106.6</ele></trkpt>
    <trkpt lat="46.1559002" lon="11.1040961"><ele>1110.8</ele></trkpt>
    <trkpt lat="46.1557888" lon="11.1040807"><ele>1110.9</ele></trkpt>
    <trkpt lat="46.1556766" lon="11.1040640"><ele>1114.7</ele></trkpt>
    <trkpt lat="46.1555636" lon="11.1040462"><ele>1118.3</ele></trkpt>
    <trkpt lat="46.1554501" lon="11.1040272"><ele>1120.8</ele></trkpt>
    <trkpt lat="46.1553359" lon="11.1040070"><ele>1124.0</ele></trkpt>
    <trkpt lat="46.1552213" lon="11.1039857"><ele>1123.0</ele></trkpt>
    <trkpt lat="46.1551062" lon="11.1039632"><ele>1127.1</ele></trkpt>
    <trkpt lat="46.1549907" lon="11.1039397"><ele>1129.6</ele></trkpt>
    <trkpt lat="46.1548748" lon="11.1039150"><ele>1133.2</ele></trkpt>
    <trkpt lat="46.1547588" lon="11.1038893"><ele>1136.3</ele></trkpt>
    <trkpt lat="46.1546425" lon="11.1038625"><ele>1134.7</ele></trkpt>
    <trkpt lat="46.1545261" lon="11.1038346"><ele>1141.4</ele></trkpt>
    <trkpt lat="46.1544096" lon="11.1038058"><ele>1141.1</ele></trkpt>
    <trkpt lat="46.1542932" lon="11.1037759"><ele>1146.0</ele></trkpt>
    <trkpt lat="46.1541768" lon="11.1037451"><ele>1146.2</ele></trkpt>
    <trkpt lat="46.1540606" lon="11.1037132"><ele>1150.5</ele></trkpt>
    <trkpt lat="46.1539446" lon="11.1036804"><ele>1154.2</ele></trkpt>
    <trkpt lat="46.1538288" lon="11.1036467"><ele>1155.3</ele></trkpt>
    <trkpt lat="46.1537134" lon="11.1036121"><ele>1158.2</ele></trkpt>
    <trkpt lat="46.1535984" lon="11.1035765"><ele>1161.4</ele></trkpt>
    <trkpt lat="46.1534838" lon="11.1035401"><ele>1163.2</ele></trkpt>
    <trkpt lat="46.1533698" lon="11.1035027"><ele>1165.5</ele></trkpt>
    <trkpt lat="46.1532564" lon="11.1034646"><ele>1169.8</ele></trkpt>
    <trkpt lat="46.1531436" lon="11.1034256"><ele>1171.8</ele></trkpt>
    <trkpt lat="46.1530316" lon="11.1033858"><ele>1172.9</ele></trkpt>
    <trkpt lat="46.1529204" lon="11.1033452"><ele>1178.8</ele></trkpt>
    <trkpt lat="46.1528100" lon="11.1033038"><ele>1177.0</ele></trkpt>
    <trkpt lat="46.1527006" lon="11.1032616"><ele>1181.9</ele></trkpt>
    <trkpt lat="46.1525921" lon="11.1032188"><ele>1183.1</ele></trkpt>
    <trkpt lat="46.1524847" lon="11.1031752"><ele>1186.1</ele></trkpt>
    <trkpt lat="46.1523784" lon="11.1031309"><ele>1189.3</ele></trkpt>
    <trkpt lat="46.1522732" lon="11.1030859"><ele>1191.3</ele></trkpt>
    <trkpt lat="46.1521693" lon="11.1030402"><ele>1194.3</ele></trkpt>
    <trkpt lat="46.1520667" lon="11.1029939"><ele>1194.4</ele></trkpt>
    <trkpt lat="46.1519655" lon="11.1029470"><ele>1197.0</ele></trkpt>
    <trkpt lat="46.1518657" lon="11.1028995"><ele>1201.9</ele></trkpt>
    <trkpt lat="46.1517674" lon="11.1028514"><ele>1202.7</ele></trkpt>
    <trkpt lat="46.1516706" lon="11.1028027"><ele>1205.1</ele></trkpt>
    <trkpt lat="46.1515754" lon="11.1027534"><ele>1207.2</ele></trkpt>
    <trkpt lat="46.1514818" lon="11.1027037"><ele>1212.8</ele></trkpt>
    <trkpt lat="46.1513900" lon="11.1026534"><ele>1214.7</ele></trkpt>
    <trkpt lat="46.1513000" lon="11.1026026"><ele>1218.1</ele></trkpt>
    <trkpt lat="46.1512118" lon="11.1025514"><ele>1218.0</ele></trkpt>
    <trkpt lat="46.1511255" lon="11.1024997"><ele>1221.5</ele></trkpt>
    <trkpt lat="46.1510411" lon="11.1024476"><ele>1222.8</ele></trkpt>
    <trkpt lat="46.1509587" lon="11.1023951"><ele>1227.5</ele></trkpt>
    <trkpt lat="46.1508784" lon="11.1023422"><ele>1230.9</ele></trkpt>
    <trkpt lat="46.1508002" lon="11.1022889"><ele>1230.7</ele></trkpt>
    <trkpt lat="46.1507242" lon="11.1022352"><ele>1236.0</ele></trkpt>
    <trkpt lat="46.1506504" lon="11.1021813"><ele>1237.9</ele></trkpt>
    <trkpt lat="46.1505788" lon="11.1021270"><ele>1239.1</ele></trkpt>
    <trkpt lat="46.1505096" lon="11.1020724"><ele>1239.7</ele></trkpt>
    <trkpt lat="46.1504427" lon="11.1020176"><ele>1246.0</ele></trkpt>
    <trkpt lat="46.1503783" lon="11.1019625"><ele>1246.8</ele></trkpt>
    <trkpt lat="46.1503163" lon="11.1019071"><ele>1248.8</ele></trkpt>
    <trkpt lat="46.1502568" lon="11.1018516"><ele>1252.5</ele></trkpt>
    <trkpt lat="46.1501999" lon="11.1017959"><ele>1255.0</ele></trkpt>
    <trkpt lat="46.1501456" lon="11.1017400"><ele>1258.8</ele></trkpt>
    <trkpt lat="46.1500940" lon="11.1016839"><ele>1258.5</ele></trkpt>
    <trkpt lat="46.1500451" lon="11.1016277"><ele>1263.5</ele></trkpt>
    <trkpt lat="46.1499989" lon="11.1015714"><ele>1266.4</ele></trkpt>
    <trkpt lat="46.1499555" lon="11.1015151"><ele>1268.9</ele></trkpt>
    <trkpt lat="46.1499149" lon="11.1014586"><ele>1269.6</ele></trkpt>
    <trkpt lat="46.1498772" lon="11.1014021"><ele>1271.6</ele></trkpt>
    <trkpt lat="46.1498424" lon="11.1013456"><ele>1276.0</ele></trkpt>
    <trkpt lat="46.1498105" lon="11.1012891"><ele>1277.6</ele></trkpt>
    <trkpt lat="46.1497817" lon="11.1012325"><ele>1280.1</ele></trkpt>
    <trkpt lat="46.1497558" lon="11.1011761"><ele>1284.1</ele></trkpt>
    <trkpt lat="46.1497331" lon="11.1011196"><ele>1284.8</ele></trkpt>
    <trkpt lat="46.1497134" lon="11.1010633"><ele>1285.1</ele></trkpt>
    <trkpt lat="46.1496968" lon="11.1010070"><ele>1289.8</ele></trkpt>
    <trkpt lat="46.1496834" lon="11.1009509"><ele>1290.7</ele></trkpt>
    <trkpt lat="46.1496732" lon="11.1008948"><ele>1296.2</ele></trkpt>
    <trkpt lat="46.1496662" lon="11.1008390"><ele>1298.2</ele></trkpt>
    <trkpt lat="46.1496625" lon="11.1007833"><ele>1299.7</ele></trkpt>
    <trkpt lat="46.1496621" lon="11.1007278"><ele>1302.9</ele></trkpt>
    <trkpt lat="46.1496649" lon="11.1006725"><ele>1306.3</ele></trkpt>
    <trkpt lat="46.1496712" lon="11.1006175"><ele>1308.1</ele></trkpt>
    <trkpt lat="46.1496807" lon="11.1005627"><ele>1312.0</ele></trkpt>
    <trkpt lat="46.1496937" lon="11.1005082"><ele>1313.0</ele></trkpt>
    <trkpt lat="46.1497101" lon="11.1004540"><ele>1316.7</ele></trkpt>
    <trkpt lat="46.1497299" lon="11.1004001"><ele>1319.8</ele></trkpt>
    <trkpt lat="46.1497531" lon="11.1003465"><ele>1322.5</ele></trkpt>
    <trkpt lat="46.1497798" lon="11.1002933"><ele>1322.5</ele></trkpt>
    <trkpt lat="46.1498101" lon="11.1002405"><ele>1326.7</ele></trkpt>
    <trkpt lat="46.1498438" lon="11.1001880"><ele>1326.3</ele></trkpt>
    <trkpt lat="46.1498810" lon="11.1001360"><ele>1329.7</ele></trkpt>
    <trkpt lat="46.1499218" lon="11.1000844"><ele>1331.2</ele></trkpt>
    <trkpt lat="46.1499662" lon="11.1000333"><ele>1337.1</ele></trkpt>
    <trkpt lat="46.1500141" lon="11.0999827"><ele>1337.1</ele></trkpt>
    <trkpt lat="46.1500656" lon="11.0999325"><ele>1341.0</ele></trkpt>
    <trkpt lat="46.1501207" lon="11.0998829"><ele>1343.4</ele></trkpt>
    <trkpt lat="46.1501794" lon="11.0998338"><ele>1346.1</ele></trkpt>
    <trkpt lat="46.1502417" lon="11.0997852"><ele>1348.0</ele></trkpt>
    <trkpt lat="46.1503076" lon="11.0997372"><ele>1351.5</ele></trkpt>
    <trkpt lat="46.1503772" lon="11.0996898"><ele>1355.7</ele></trkpt>
    <trkpt lat="46.1504503" lon="11.0996431"><ele>1356.3</ele></trkpt>
    <trkpt lat="46.1505271" lon="11.0995969"><ele>1359.4</ele></trkpt>
    <trkpt lat="46.1506075" lon="11.0995514"><ele>1362.5</ele></trkpt>
    <trkpt lat="46.1506916" lon="11.0995066"><ele>1363.7</ele></trkpt>
    <trkpt lat="46.1507793" lon="11.0994625"><ele>1365.1</ele></trkpt>
    <trkpt lat="46.1508706" lon="11.0994190"><ele>1368.4</ele></trkpt>
    <trkpt lat="46.1509655" lon="11.0993763"><ele>1372.7</ele></trkpt>
    <trkpt lat="46.1510641" lon="11.0993344"><ele>1372.3</ele></trkpt>
    <trkpt lat="46.1511663" lon="11.0992932"><ele>1376.0</ele></trkpt>
    <trkpt lat="46.1512721" lon="11.0992527"><ele>1380.3</ele></trkpt>
    <trkpt lat="46.1513815" lon="11.0992131"><ele>1382.6</ele></trkpt>
    <trkpt lat="46.1514945" lon="11.0991743"><ele>1384.3</ele></trkpt>
    <trkpt lat="46.1516111" lon="11.0991363"><ele>1387.7</ele></trkpt>
    <trkpt lat="46.1517313" lon="11.0990992"><ele>1389.5</ele></trkpt>
    <trkpt lat="46.1518550" lon="11.0990630"><ele>1390.6</ele></trkpt>
    <trkpt lat="46.1519823" lon="11.0990276"><ele>1392.7</ele></trkpt>
    <trkpt lat="46.1521131" lon="11.0989932"><ele>1396.3</ele></trkpt>
    <trkpt lat="46.1522474" lon="11.0989597"><ele>1400.5</ele></trkpt>
    <trkpt lat="46.1523853" lon="11.0989271"><ele>1401.4</ele></trkpt>
    <trkpt lat="46.1525266" lon="11.0988955"><ele>1403.6</ele></trkpt>
    <trkpt lat="46.1526714" lon="11.0988649"><ele>1406.3</ele></trkpt>
    <trkpt lat="46.1528196" lon="11.0988353"><ele>1408.0</ele></trkpt>
    <trkpt lat="46.1529713" lon="11.0988066"><ele>1412.1</ele></trkpt>
    <trkpt lat="46.1531264" lon="11.0987790"><ele>1413.5</ele></trkpt>
    <trkpt lat="46.1532848" lon="11.0987525"><ele>1417.7</ele></trkpt>
    <trkpt lat="46.1534466" lon="11.0987270"><ele>1417.2</ele></trkpt>
    <trkpt lat="46.1536118" lon="11.0987026"><ele>1422.7</ele></trkpt>
    <trkpt lat="46.1537802" lon="11.0986793"><ele>1424.2</ele></trkpt>
    <trkpt lat="46.1539519" lon="11.0986571"><ele>1425.3</ele></trkpt>
    <trkpt lat="46.1541268" lon="11.0986361"><ele>1430.8</ele></trkpt>
    <trkpt lat="46.1543050" lon="11.0986162"><ele>1432.3</ele></trkpt>
    <trkpt lat="46.1544864" lon="11.0985974"><ele>1432.6</ele></trkpt>
    <trkpt lat="46.1546708" lon="11.0985799"><ele>1436.7</ele></trkpt>
    <trkpt lat="46.1548585" lon="11.0985635"><ele>1440.5</ele></trkpt>
    <trkpt lat="46.1550492" lon="11.0985483"><ele>1442.2</ele></trkpt>
    <trkpt lat="46.1552429" lon="11.0985344"><ele>1446.1</ele></trkpt>
    <trkpt lat="46.1554397" lon="11.0985217"><ele>1448.6</ele></trkpt>
    <trkpt lat="46.1556394" lon="11.0985102"><ele>1451.1</ele></trkpt>
    <trkpt lat="46.1558420" lon="11.0985001"><ele>1453.3</ele></trkpt>
    <trkpt lat="46.1560476" lon="11.0984912"><ele>1456.9</ele></trkpt>
    <trkpt lat="46.1562560" lon="11.0984836"><ele>1458.7</ele></trkpt>
    <trkpt lat="46.1564672" lon="11.0984773"><ele>1461.0</ele></trkpt>
    <trkpt lat="46.1566812" lon="11.0984724"><ele>1460.8</ele></trkpt>
    <trkpt lat="46.1568979" lon="11.0984688"><ele>1466.6</ele></trkpt>
    <trkpt lat="46.1571174" lon="11.0984665"><ele>1469.6</ele></trkpt>
    <trkpt lat="46.1573394" lon="11.0984657"><ele>1470.4</ele></trkpt>
    <trkpt lat="46.1575640" lon="11.0984662"><ele>1472.7</ele></trkpt>
    <trkpt lat="46.1577912" lon="11.0984681"><ele>1477.9</ele></trkpt>
    <trkpt lat="46.1580209" lon="11.0984714"><ele>1476.4</ele></trkpt>
    <trkpt lat="46.1582531" lon="11.0984762"><ele>1480.8</ele></trkpt>
    <trkpt lat="46.1584876" lon="11.0984824"><ele>1483.6</ele></trkpt>
    <trkpt lat="46.1587245" lon="11.0984900"><ele>1480.6</ele></trkpt>
    <trkpt lat="46.1589637" lon="11.0984991"><ele>1483.1</ele></trkpt>
    <trkpt lat="46.1592052" lon="11.0985097"><ele>1485.1</ele></trkpt>
    <trkpt lat="46.1594488" lon="11.0985218"><ele>1483.5</ele></trkpt>
    <trkpt lat="46.1596946" lon="11.0985354"><ele>1484.9</ele></trkpt>
    <trkpt lat="46.1599425" lon="11.0985505"><ele>1486.0</ele></trkpt>
    <trkpt lat="46.1601924" lon="11.0985671"><ele>1484.6</ele></trkpt>
    <trkpt lat="46.1604443" lon="11.0985852"><ele>1486.1</ele></trkpt>
    <trkpt lat="46.1606981" lon="11.0986049"><ele>1487.1</ele></trkpt>
    <trkpt lat="46.1609538" lon="11.0986262"><ele>1488.3</ele></trkpt>
    <trkpt lat="46.1612113" lon="11.0986491"><ele>1487.9</ele></trkpt>
    <trkpt lat="46.1614706" lon="11.0986735"><ele>1488.2</ele></trkpt>
    <trkpt lat="46.1617316" lon="11.0986995"><ele>1487.8</ele></trkpt>
    <trkpt lat="46.1619942" lon="11.0987271"><ele>1489.0</ele></trkpt>
    <trkpt lat="46.1622584" lon="11.0987564"><ele>1490.8</ele></trkpt>
    <trkpt lat="46.1625241" lon="11.0987872"><ele>1490.3</ele></trkpt>
    <trkpt lat="46.1627912" lon="11.0988197"><ele>1489.6</ele></trkpt>
    <trkpt lat="46.1630598" lon="11.0988539"><ele>1489.9</ele></trkpt>
    <trkpt lat="46.1633297" lon="11.0988897"><ele>1494.0</ele></trkpt>
    <trkpt lat="46.1636009" lon="11.0989271"><ele>1492.6</ele></trkpt>
    <trkpt lat="46.1638733" lon="11.0989663"><ele>1492.3</ele></trkpt>
    <trkpt lat="46.1641468" lon="11.0990071"><ele>1488.9</ele></trkpt>
    <trkpt lat="46.1644215" lon="11.0990496"><ele>1492.5</ele></trkpt>
    <trkpt lat="46.1646971" lon="11.0990938"><ele>1492.5</ele></trkpt>
    <trkpt lat="46.1649738" lon="11.0991398"><ele>1493.8</ele></trkpt>
    <trkpt lat="46.1652513" lon="11.0991874"><ele>1492.5</ele></trkpt>
    <trkpt lat="46.1655297" lon="11.0992368"><ele>1491.9</ele></trkpt>
    <trkpt lat="46.1658088" lon="11.0992879"><ele>1492.5</ele></trkpt>
    <trkpt lat="46.1660886" lon="11.0993407"><ele>1489.6</ele></trkpt>
    <trkpt lat="46.1663691" lon="11.0993953"><ele>1492.7</ele></trkpt>
    <trkpt lat="46.1666502" lon="11.0994517"><ele>1491.8</ele></trkpt>
    <trkpt lat="46.1669317" lon="11.0995098"><ele>1490.4</ele></trkpt>
    <trkpt lat="46.1672138" lon="11.0995697"><ele>1492.4</ele></trkpt>
    <trkpt lat="46.1674962" lon="11.0996313"><ele>1492.6</ele></trkpt>
    <trkpt lat="46.1677789" lon="11.0996948"><ele>1488.7</ele></trkpt>
    <trkpt lat="46.1680618" lon="11.0997600"><ele>1489.1</ele></trkpt>
    <trkpt lat="46.1683450" lon="11.0998270"><ele>1489.8</ele></trkpt>
    <trkpt lat="46.1686282" lon="11.0998959"><ele>1489.2</ele></trkpt>
    <trkpt lat="46.1689115" lon="11.0999665"><ele>1488.1</ele></trkpt>
    <trkpt lat="46.1691948" lon="11.1000390"><ele>1487.0</ele></trkpt>
    <trkpt lat="46.1694780" lon="11.1001132"><ele>1489.8</ele></trkpt>
    <trkpt lat="46.1697611" lon="11.1001893"><ele>1488.1</ele></trkpt>
    <trkpt lat="46.1700440" lon="11.1002672"><ele>1485.1</ele></trkpt>
    <trkpt lat="46.1703265" lon="11.1003470"><ele>1484.3</ele></trkpt>
    <trkpt lat="46.1706088" lon="11.1004286"><ele>1487.0</ele></trkpt>
    <trkpt lat="46.1708906" lon="11.1005120"><ele>1485.6</ele></trkpt>
    <trkpt lat="46.1711719" lon="11.1005973"><ele>1485.8</ele></trkpt>
    <trkpt lat="46.1714527" lon="11.1006844"><ele>1484.1</ele></trkpt>
    <trkpt lat="46.1717329" lon="11.1007734"><ele>1481.5</ele></trkpt>
    <trkpt lat="46.1720124" lon="11.1008642"><ele>1482.1</ele></trkpt>
    <trkpt lat="46.1722912" lon="11.1009569"><ele>1478.7</ele></trkpt>
    <trkpt lat="46.1725692" lon="11.1010514"><ele>1479.6</ele></trkpt>
    <trkpt lat="46.1728463" lon="11.1011478"><ele>1478.9</ele></trkpt>
    <trkpt lat="46.1731225" lon="11.1012461"><ele>1476.9</ele></trkpt>
    <trkpt lat="46.1733977" lon="11.1013462"><ele>1472.9</ele></trkpt>
    <trkpt lat="46.1736719" lon="11.1014483"><ele>1470.9</ele></trkpt>
    <trkpt lat="46.1739449" lon="11.1015521"><ele>1468.9</ele></trkpt>
    <trkpt lat="46.1742167" lon="11.1016579"><ele>1466.2</ele></trkpt>
    <trkpt lat="46.1744873" lon="11.1017655"><ele>1463.9</ele></trkpt>
    <trkpt lat="46.1747566" lon="11.1018750"><ele>1460.8</ele></trkpt>
    <trkpt lat="46.1750246" lon="11.1019864"><ele>1457.6</ele></trkpt>
    <trkpt lat="46.1752911" lon="11.1020997"><ele>1456.2</ele></trkpt>
    <trkpt lat="46.1755561" lon="11.1022148"><ele>1452.7</ele></trkpt>
    <trkpt lat="46.1758195" lon="11.1023318"><ele>1449.1</ele></trkpt>
    <trkpt lat="46.1760814" lon="11.1024507"><ele>1446.7</ele></trkpt>
    <trkpt lat="46.1763416" lon="11.1025715"><ele>1444.8</ele></trkpt>
    <trkpt lat="46.1766000" lon="11.1026941"><ele>1442.0</ele></trkpt>
    <trkpt lat="46.1768567" lon="11.1028187"><ele>1439.7</ele></trkpt>
    <trkpt lat="46.1771116" lon="11.1029451"><ele>1436.9</ele></trkpt>
    <trkpt lat="46.1773645" lon="11.1030733"><ele>1434.4</ele></trkpt>
    <trkpt lat="46.1776155" lon="11.1032035"><ele>1431.5</ele></trkpt>
    <trkpt lat="46.1778645" lon="11.1033355"><ele>1427.6</ele></trkpt>
    <trkpt lat="46.1781114" lon="11.1034694"><ele>1426.8</ele></trkpt>
    <trkpt lat="46.1783562" lon="11.1036052"><ele>1424.9</ele></trkpt>
    <trkpt lat="46.1785989" lon="11.1037428"><ele>1421.6</ele></trkpt>
    <trkpt lat="46.1788393" lon="11.1038823"><ele>1418.3</ele></trkpt>
    <trkpt lat="46.1790774" lon="11.1040236"><ele>1416.3</ele></trkpt>
    <trkpt lat="46.1793132" lon="11.1041668"><ele>1412.2</ele></trkpt>
    <trkpt lat="46.1795467" lon="11.1043119"><ele>1408.5</ele></trkpt>
    <trkpt lat="46.1797777" lon="11.1044588"><ele>1408.0</ele></trkpt>
    <trkpt lat="46.1800062" lon="11.1046075"><ele>1404.3</ele></trkpt>
    <trkpt lat="46.1802323" lon="11.1047581"><ele>1403.5</ele></trkpt>
    <trkpt lat="46.1804557" lon="11.1049105"><ele>1398.9</ele></trkpt>
    <trkpt lat="46.1806765" lon="11.1050648"><ele>1394.6</ele></trkpt>
    <trkpt lat="46.1808947" lon="11.1052209"><ele>1393.7</ele></trkpt>
    <trkpt lat="46.1811102" lon="11.1053788"><ele>1393.9</ele></trkpt>
    <trkpt lat="46.1813229" lon="11.1055386"><ele>1389.1</ele></trkpt>
    <trkpt lat="46.1815328" lon="11.1057002"><ele>1385.4</ele></trkpt>
    <trkpt lat="46.1817399" lon="11.1058635"><ele>1383.5</ele></trkpt>
    <trkpt lat="46.1819442" lon="11.1060287"><ele>1382.2</ele></trkpt>
    <trkpt lat="46.1821455" lon="11.1061957"><ele>1379.6</ele></trkpt>
    <trkpt lat="46.1823438" lon="11.1063645"><ele>1376.6</ele></trkpt>
    <trkpt lat="46.1825392" lon="11.1065351"><ele>1375.4</ele></trkpt>
    <trkpt lat="46.1827315" lon="11.1067074"><ele>1371.9</ele></trkpt>
    <trkpt lat="46.1829208" lon="11.1068815"><ele>1368.5</ele></trkpt>
    <trkpt lat="46.1831070" lon="11.1070574"><ele>1366.5</ele></trkpt>
    <trkpt lat="46.1832900" lon="11.1072351"><ele>1365.1</ele></trkpt>
    <trkpt lat="46.1834699" lon="11.1074145"><ele>1361.7</ele></trkpt>
    <trkpt lat="46.1836466" lon="11.1075956"><ele>1359.1</ele></trkpt>
    <trkpt lat="46.1838201" lon="11.1077785"><ele>1354.2</ele></trkpt>
    <trkpt lat="46.1839903" lon="11.1079632"><ele>1352.6</ele></trkpt>
    <trkpt lat="46.1841572" lon="11.1081495"><ele>1350.9</ele></trkpt>
    <trkpt lat="46.1843208" lon="11.1083376"><ele>1347.2</ele></trkpt>
    <trkpt lat="46.1844810" lon="11.1085274"><ele>1346.0</ele></trkpt>
    <trkpt lat="46.1846379" lon="11.1087188"><ele>1342.9</ele></trkpt>
    <trkpt lat="46.1847914" lon="11.1089120"><ele>1340.6</ele></trkpt>
    <trkpt lat="46.1849415" lon="11.1091068"><ele>1336.7</ele></trkpt>
    <trkpt lat="46.1850882" lon="11.1093033"><ele>1337.1</ele></trkpt>
    <trkpt lat="46.1852314" lon="11.1095015"><ele>1333.1</ele></trkpt>
    <trkpt lat="46.1853711" lon="11.1097014"><ele>1328.8</ele></trkpt>
    <trkpt lat="46.1855073" lon="11.1099028"><ele>1326.6</ele></trkpt>
    <trkpt lat="46.1856400" lon="11.1101059"><ele>1326.7</ele></trkpt>
    <trkpt lat="46.1857692" lon="11.1103107"><ele>1320.8</ele></trkpt>
    <trkpt lat="46.1858949" lon="11.1105170"><ele>1319.5</ele></trkpt>
    <trkpt lat="46.1860169" lon="11.1107250"><ele>1317.0</ele></trkpt>
    <trkpt lat="46.1861355" lon="11.1109345"><ele>1313.3</ele></trkpt>
    <trkpt lat="46.1862504" lon="11.1111456"><ele>1309.4</ele></trkpt>
    <trkpt lat="46.1863617" lon="11.1113583"><ele>1308.3</ele></trkpt>
    <trkpt lat="46.1864695" lon="11.1115726"><ele>1305.8</ele></trkpt>
    <trkpt lat="46.1865736" lon="11.1117884"><ele>1304.0</ele></trkpt>
    <trkpt lat="46.1866741" lon="11.1120057"><ele>1301.0</ele></trkpt>
    <trkpt lat="46.1867710" lon="11.1122245"><ele>1297.6</ele></trkpt>
    <trkpt lat="46.1868643" lon="11.1124449"><ele>1295.8</ele></trkpt>
    <trkpt lat="46.1869540" lon="11.1126668"><ele>1292.9</ele></trkpt>
    <trkpt lat="46.1870400" lon="11.1128901"><ele>1289.9</ele></trkpt>
    <trkpt lat="46.1871223" lon="11.1131149"><ele>1287.1</ele></trkpt>
    <trkpt lat="46.1872011" lon="11.1133412"><ele>1284.1</ele></trkpt>
    <trkpt lat="46.1872762" lon="11.1135690"><ele>1282.5</ele></trkpt>
    <trkpt lat="46.1873477" lon="11.1137982"><ele>1278.0</ele></trkpt>
    <trkpt lat="46.1874156" lon="11.1140287"><ele>1275.8</ele></trkpt>
    <trkpt lat="46.1874798" lon="11.1142608"><ele>1273.9</ele></trkpt>
    <trkpt lat="46.1875404" lon="11.1144942"><ele>1269.6</ele></trkpt>
    <trkpt lat="46.1875975" lon="11.1147289"><ele>1268.1</ele></trkpt>
    <trkpt lat="46.1876509" lon="11.1149651"><ele>1263.8</ele></trkpt>
    <trkpt lat="46.1877008" lon="11.1152026"><ele>1262.6</ele></trkpt>
    <trkpt lat="46.1877470" lon="11.1154415"><ele>1261.4</ele></trkpt>
    <trkpt lat="46.1877897" lon="11.1156816"><ele>1258.7</ele></trkpt>
    <trkpt lat="46.1878289" lon="11.1159231"><ele>1255.4</ele></trkpt>
    <trkpt lat="46.1878645" lon="11.1161659"><ele>1252.6</ele></trkpt>
    <trkpt lat="46.1878966" lon="11.1164100"><ele>1248.7</ele></trkpt>
    <trkpt lat="46.1879252" lon="11.1166553"><ele>1249.6</ele></trkpt>
    <trkpt lat="46.1879504" lon="11.1169019"><ele>1245.5</ele></trkpt>
    <trkpt lat="46.1879720" lon="11.1171497"><ele>1243.5</ele></trkpt>
    <trkpt lat="46.1879902" lon="11.1173987"><ele>1238.7</ele></trkpt>
    <trkpt lat="46.1880050" lon="11.1176490"><ele>1236.9</ele></trkpt>
    <trkpt lat="46.1880164" lon="11.1179004"><ele>1232.4</ele></trkpt>
    <trkpt lat="46.1880244" lon="11.1181530"><ele>1232.7</ele></trkpt>
    <trkpt lat="46.1880291" lon="11.1184068"><ele>1230.2</ele></trkpt>
    <trkpt lat="46.1880304" lon="11.1186617"><ele>1224.5</ele></trkpt>
    <trkpt lat="46.1880285" lon="11.1189178"><ele>1223.9</ele></trkpt>
    <trkpt lat="46.1880232" lon="11.1191749"><ele>1222.0</ele></trkpt>
    <trkpt lat="46.1880148" lon="11.1194332"><ele>1216.7</ele></trkpt>
    <trkpt lat="46.1880031" lon="11.1196925"><ele>1214.0</ele></trkpt>
    <trkpt lat="46.1879882" lon="11.1199529"><ele>1212.2</ele></trkpt>
    <trkpt lat="46.1879702" lon="11.1202143"><ele>1210.1</ele></trkpt>
    <trkpt lat="46.1879491" lon="11.1204767"><ele>1206.6</ele></trkpt>
    <trkpt lat="46.1879249" lon="11.1207402"><ele>1205.5</ele></trkpt>
    <trkpt lat="46.1878977" lon="11.1210047"><ele>1203.2</ele></trkpt>
    <trkpt lat="46.1878674" lon="11.1212701"><ele>1201.0</ele></trkpt>
    <trkpt lat="46.1878342" lon="11.1215365"><ele>1198.4</ele></trkpt>
    <trkpt lat="46.1877981" lon="11.1218038"><ele>1196.6</ele></trkpt>
    <trkpt lat="46.1877590" lon="11.1220720"><ele>1193.6</ele></trkpt>
    <trkpt lat="46.1877172" lon="11.1223412"><ele>1188.3</ele></trkpt>
    <trkpt lat="46.1876725" lon="11.1226112"><ele>1186.6</ele></trkpt>
    <trkpt lat="46.1876250" lon="11.1228821"><ele>1183.3</ele></trkpt>
    <trkpt lat="46.1875748" lon="11.1231539"><ele>1180.7</ele></trkpt>
    <trkpt lat="46.1875220" lon="11.1234265"><ele>1179.1</ele></trkpt>
    <trkpt lat="46.1874665" lon="11.1236999"><ele>1176.6</ele></trkpt>
    <trkpt lat="46.1874084" lon="11.1239741"><ele>1174.5</ele></trkpt>
    <trkpt lat="46.1873477" lon="11.1242490"><ele>1169.6</ele></trkpt>
    <trkpt lat="46.1872846" lon="11.1245248"><ele>1167.3</ele></trkpt>
    <trkpt lat="46.1872190" lon="11.1248013"><ele>1166.1</ele></trkpt>
    <trkpt lat="46.1871511" lon="11.1250784"><ele>1163.2</ele></trkpt>
    <trkpt lat="46.1870808" lon="11.1253563"><ele>1160.5</ele></trkpt>
    <trkpt lat="46.1870082" lon="11.1256349"><ele>1158.1</ele></trkpt>
    <trkpt lat="46.1869333" lon="11.1259142"><ele>1154.7</ele></trkpt>
    <trkpt lat="46.1868563" lon="11.1261941"><ele>1153.7</ele></trkpt>
    <trkpt lat="46.1867771" lon="11.1264746"><ele>1150.7</ele></trkpt>
    <trkpt lat="46.1866958" lon="11.1267557"><ele>1147.6</ele></trkpt>
    <trkpt lat="46.1866125" lon="11.1270374"><ele>1144.3</ele></trkpt>
    <trkpt lat="46.1865272" lon="11.1273197"><ele>1142.2</ele></trkpt>
    <trkpt lat="46.1864400" lon="11.1276025"><ele>1136.8</ele></trkpt>
    <trkpt lat="46.1863510" lon="11.1278859"><ele>1136.1</ele></trkpt>
    <trkpt lat="46.1862601" lon="11.1281697"><ele>1134.6</ele></trkpt>
    <trkpt lat="46.1861675" lon="11.1284541"><ele>1130.2</ele></trkpt>
    <trkpt lat="46.1860732" lon="11.1287389"><ele>1129.5</ele></trkpt>
    <trkpt lat="46.1859773" lon="11.1290242"><ele>1126.8</ele></trkpt>
    <trkpt lat="46.1858797" lon="11.1293099"><ele>1122.5</ele></trkpt>
    <trkpt lat="46.1857807" lon="11.1295960"><ele>1121.1</ele></trkpt>
    <trkpt lat="46.1856802" lon="11.1298825"><ele>1118.4</ele></trkpt>
    <trkpt lat="46.1855784" lon="11.1301694"><ele>1116.6</ele></trkpt>
    <trkpt lat="46.1854752" lon="11.1304566"><ele>1114.2</ele></trkpt>
    <trkpt lat="46.1853707" lon="11.1307442"><ele>1110.8</ele></trkpt>
    <trkpt lat="46.1852650" lon="11.1310321"><ele>1107.3</ele></trkpt>
    <trkpt lat="46.1851582" lon="11.1313202"><ele>1105.4</ele></trkpt>
    <trkpt lat="46.1850503" lon="11.1316087"><ele>1102.9</ele></trkpt>
    <trkpt lat="46.1849413" lon="11.1318974"><ele>1101.2</ele></trkpt>
    <trkpt lat="46.1848315" lon="11.1321863"><ele>1098.0</ele></trkpt>
    <trkpt lat="46.1847207" lon="11.1324754"><ele>1094.3</ele></trkpt>
    <trkpt lat="46.1846091" lon="11.1327648"><ele>1091.0</ele></trkpt>
    <trkpt lat="46.1844967" lon="11.1330542"><ele>1089.4</ele></trkpt>
    <trkpt lat="46.1843837" lon="11.1333439"><ele>1086.4</ele></trkpt>
    <trkpt lat="46.1842700" lon="11.1336337"><ele>1083.3</ele></trkpt>
    <trkpt lat="46.1841557" lon="11.1339235"><ele>1081.8</ele></trkpt>
    <trkpt lat="46.1840409" lon="11.1342135"><ele>1078.8</ele></trkpt>
    <trkpt lat="46.1839257" lon="11.1345036"><ele>1076.8</ele></trkpt>
    <trkpt lat="46.1838101" lon="11.1347936"><ele>1074.6</ele></trkpt>
    <trkpt lat="46.1836942" lon="11.1350838"><ele>1071.0</ele></trkpt>
    <trkpt lat="46.1835781" lon="11.1353739"><ele>1071.4</ele></trkpt>
    <trkpt lat="46.1834618" lon="11.1356640"><ele>1065.8</ele></trkpt>
    <trkpt lat="46.1833454" lon="11.1359541"><ele>1064.7</ele></trkpt>
    <trkpt lat="46.1832289" lon="11.1362441"><ele>1061.0</ele></trkpt>
    <trkpt lat="46.1831125" lon="11.1365341"><ele>1059.5</ele></trkpt>
    <trkpt lat="46.1829961" lon="11.1368239"><ele>1053.0</ele></trkpt>
    <trkpt lat="46.1828799" lon="11.1371137"><ele>1052.2</ele></trkpt>
    <trkpt lat="46.1827640" lon="11.1374033"><ele>1050.7</ele></trkpt>
    <trkpt lat="46.1826483" lon="11.1376927"><ele>1048.4</ele></trkpt>
    <trkpt lat="46.1825330" lon="11.1379820"><ele>1047.7</ele></trkpt>
    <trkpt lat="46.1824180" lon="11.1382711"><ele>1042.9</ele></trkpt>
    <trkpt lat="46.1823036" lon="11.1385600"><ele>1041.3</ele></trkpt>
    <trkpt lat="46.1821897" lon="11.1388486"><ele>1038.1</ele></trkpt>
    <trkpt lat="46.1820765" lon="11.1391370"><ele>1035.7</ele></trkpt>
    <trkpt lat="46.1819639" lon="11.1394251"><ele>1032.5</ele></trkpt>
    <trkpt lat="46.1818520" lon="11.1397129"><ele>1029.2</ele></trkpt>
    <trkpt lat="46.1817410" lon="11.1400004"><ele>1027.3</ele></trkpt>
    <trkpt lat="46.1816308" lon="11.1402875"><ele>1022.9</ele></trkpt>
    <trkpt lat="46.1815216" lon="11.1405743"><ele>1022.8</ele></trkpt>
    <trkpt lat="46.1814134" lon="11.1408607"><ele>1017.7</ele></trkpt>
    <trkpt lat="46.1813062" lon="11.1411468"><ele>1016.5</ele></trkpt>
    <trkpt lat="46.1812002" lon="11.1414324"><ele>1015.9</ele></trkpt>
    <trkpt lat="46.1810953" lon="11.1417176"><ele>1010.7</ele></trkpt>
    <trkpt lat="46.1809917" lon="11.1420023"><ele>1008.3</ele></trkpt>
    <trkpt lat="46.1808894" lon="11.1422865"><ele>1007.0</ele></trkpt>
    <trkpt lat="46.1807885" lon="11.1425703"><ele>1003.1</ele></trkpt>
    <trkpt lat="46.1806890" lon="11.1428535"><ele>999.5</ele></trkpt>
    <trkpt lat="46.1805910" lon="11.1431362"><ele>998.1</ele></trkpt>
    <trkpt lat="46.1804946" lon="11.1434183"><ele>995.8</ele></trkpt>
    <trkpt lat="46.1803998" lon="11.1436999"><ele>993.3</ele></trkpt>
    <trkpt lat="46.1803067" lon="11.1439809"><ele>989.1</ele></trkpt>
    <trkpt lat="46.1802152" lon="11.1442613"><ele>989.2</ele></trkpt>
    <trkpt lat="46.1801256" lon="11.1445410"><ele>986.5</ele></trkpt>
    <trkpt lat="46.1800378" lon="11.1448201"><ele>982.1</ele></trkpt>
    <trkpt lat="46.1799520" lon="11.1450985"><ele>979.7</ele></trkpt>
    <trkpt lat="46.1798681" lon="11.1453762"><ele>976.3</ele></trkpt>
    <trkpt lat="46.1797862" lon="11.1456533"><ele>975.7</ele></trkpt>
    <trkpt lat="46.1797063" lon="11.1459296"><ele>970.7</ele></trkpt>
    <trkpt lat="46.1796286" lon="11.1462051"><ele>969.6</ele></trkpt>
    <trkpt lat="46.1795531" lon="11.1464799"><ele>965.7</ele></trkpt>
    <trkpt lat="46.1794798" lon="11.1467539"><ele>962.9</ele></trkpt>
    <trkpt lat="46.1794088" lon="11.1470272"><ele>961.8</ele></trkpt>
    <trkpt lat="46.1793401" lon="11.1472995"><ele>961.3</ele></trkpt>
    <trkpt lat="46.1792738" lon="11.1475711"><ele>959.5</ele></trkpt>
    <trkpt lat="46.1792099" lon="11.1478418"><ele>958.5</ele></trkpt>
    <trkpt lat="46.1791485" lon="11.1481116"><ele>959.9</ele></trkpt>
    <trkpt lat="46.1790896" lon="11.1483806"><ele>958.7</ele></trkpt>
    <trkpt lat="46.1790333" lon="11.1486486"><ele>958.8</ele></trkpt>
    <trkpt lat="46.1789796" lon="11.1489157"><ele>959.8</ele></trkpt>
    <trkpt lat="46.1789286" lon="11.1491819"><ele>959.1</ele></trkpt>
    <trkpt lat="46.1788803" lon="11.1494471"><ele>957.0</ele></trkpt>
    <trkpt lat="46.1788348" lon="11.1497113"><ele>959.8</ele></trkpt>
    <trkpt lat="46.1787920" lon="11.1499745"><ele>957.1</ele></trkpt>
    <trkpt lat="46.1787521" lon="11.1502367"><ele>957.6</ele></trkpt>
    <trkpt lat="46.1787150" lon="11.1504979"><ele>955.8</ele></trkpt>
    <trkpt lat="46.1786809" lon="11.1507581"><ele>956.2</ele></trkpt>
    <trkpt lat="46.1786498" lon="11.1510171"><ele>954.0</ele></trkpt>
    <trkpt lat="46.1786216" lon="11.1512751"><ele>957.6</ele></trkpt>
    <trkpt lat="46.1785965" lon="11.1515320"><ele>956.9</ele></trkpt>
    <trkpt lat="46.1785744" lon="11.1517878"><ele>953.8</ele></trkpt>
    <trkpt lat="46.1785554" lon="11.1520424"><ele>953.2</ele></trkpt>
    <trkpt lat="46.1785396" lon="11.1522959"><ele>952.8</ele></trkpt>
    <trkpt lat="46.1785269" lon="11.1525483"><ele>955.6</ele></trkpt>
    <trkpt lat="46.1785175" lon="11.1527995"><ele>953.5</ele></trkpt>
    <trkpt lat="46.1785112" lon="11.1530494"><ele>953.6</ele></trkpt>
    <trkpt lat="46.1785083" lon="11.1532982"><ele>953.1</ele></trkpt>
    <trkpt lat="46.1785086" lon="11.1535457"><ele>953.0</ele></trkpt>
    <trkpt lat="46.1785122" lon="11.1537920"><ele>951.7</ele></trkpt>
    <trkpt lat="46.1785192" lon="11.1540370"><ele>952.6</ele></trkpt>
    <trkpt lat="46.1785296" lon="11.1542808"><ele>950.7</ele></trkpt>
    <trkpt lat="46.1785433" lon="11.1545233"><ele>952.0</ele></trkpt>
    <trkpt lat="46.1785605" lon="11.1547645"><ele>952.1</ele></trkpt>
    <trkpt lat="46.1785811" lon="11.1550043"><ele>952.0</ele></trkpt>
    <trkpt lat="46.1786051" lon="11.1552429"><ele>951.0</ele></trkpt>
    <trkpt lat="46.1786327" lon="11.1554801"><ele>949.9</ele></trkpt>
    <trkpt lat="46.1786637" lon="11.1557159"><ele>950.8</ele></trkpt>
    <trkpt lat="46.1786982" lon="11.1559504"><ele>949.8</ele></trkpt>
    <trkpt lat="46.1787363" lon="11.1561834"><ele>951.8</ele></trkpt>
    <trkpt lat="46.1787779" lon="11.1564151"><ele>950.7</ele></trkpt>
    <trkpt lat="46.1788231" lon="11.1566454"><ele>949.4</ele></trkpt>
    <trkpt lat="46.1788718" lon="11.1568742"><ele>948.7</ele></trkpt>
    <trkpt lat="46.1789242" lon="11.1571016"><ele>948.2</ele></trkpt>
    <trkpt lat="46.1789801" lon="11.1573276"><ele>947.7</ele></trkpt>
    <trkpt lat="46.1790396" lon="11.1575521"><ele>948.0</ele></trkpt>
    <trkpt lat="46.1791028" lon="11.1577751"><ele>948.5</ele></trkpt>
    <trkpt lat="46.1791695" lon="11.1579966"><ele>948.4</ele></trkpt>
    <trkpt lat="46.1792399" lon="11.1582166"><ele>948.2</ele></trkpt>
    <trkpt lat="46.1793139" lon="11.1584351"><ele>949.6</ele></trkpt>
    <trkpt lat="46.1793915" lon="11.1586521"><ele>946.3</ele></trkpt>
    <trkpt lat="46.1794728" lon="11.1588675"><ele>946.8</ele></trkpt>
    <trkpt lat="46.1795577" lon="11.1590814"><ele>949.6</ele></trkpt>
    <trkpt lat="46.1796462" lon="11.1592937"><ele>944.1</ele></trkpt>
    <trkpt lat="46.1797383" lon="11.1595045"><ele>945.3</ele></trkpt>
    <trkpt lat="46.1798341" lon="11.1597136"><ele>945.8</ele></trkpt>
    <trkpt lat="46.1799335" lon="11.1599212"><ele>945.5</ele></trkpt>
    <trkpt lat="46.1800365" lon="11.1601272"><ele>945.5</ele></trkpt>
    <trkpt lat="46.1801432" lon="11.1603315"><ele>944.5</ele></trkpt>
    <trkpt lat="46.1802534" lon="11.1605342"><ele>944.9</ele></trkpt>
    <trkpt lat="46.1803672" lon="11.1607353"><ele>944.3</ele></trkpt>
    <trkpt lat="46.1804847" lon="11.1609348"><ele>944.8</ele></trkpt>
    <trkpt lat="46.1806057" lon="11.1611326"><ele>941.6</ele></trkpt>
    <trkpt lat="46.1807302" lon="11.1613287"><ele>942.4</ele></trkpt>
    <trkpt lat="46.1808583" lon="11.1615231"><ele>943.1</ele></trkpt>
    <trkpt lat="46.1809899" lon="11.1617159"><ele>941.7</ele></trkpt>
    <trkpt lat="46.1811251" lon="11.1619070"><ele>941.4</ele></trkpt>
    <trkpt lat="46.1812637" lon="11.1620964"><ele>943.0</ele></trkpt>
    <trkpt lat="46.1814059" lon="11.1622840"><ele>941.3</ele></trkpt>
    <trkpt lat="46.1815515" lon="11.1624700"><ele>942.5</ele></trkpt>
    <trkpt lat="46.1817005" lon="11.1626542"><ele>942.3</ele></trkpt>
    <trkpt lat="46.1818529" lon="11.1628367"><ele>941.5</ele></trkpt>
    <trkpt lat="46.1820088" lon="11.1630174"><ele>941.5</ele></trkpt>
    <trkpt lat="46.1821680" lon="11.1631964"><ele>940.5</ele></trkpt>
    <trkpt lat="46.1823306" lon="11.1633737"><ele>938.8</ele></trkpt>
    <trkpt lat="46.1824965" lon="11.1635492"><ele>940.1</ele></trkpt>
    <trkpt lat="46.1826657" lon="11.1637229"><ele>940.3</ele></trkpt>
    <trkpt lat="46.1828381" lon="11.1638948"><ele>938.9</ele></trkpt>
    <trkpt lat="46.1830138" lon="11.1640650"><ele>939.1</ele></trkpt>
    <trkpt lat="46.1831927" lon="11.1642333"><ele>939.8</ele></trkpt>
    <trkpt lat="46.1833748" lon="11.1643999"><ele>937.7</ele></trkpt>
    <trkpt lat="46.1835600" lon="11.1645646"><ele>939.1</ele></trkpt>
    <trkpt lat="46.1837483" lon="11.1647276"><ele>940.2</ele></trkpt>
    <trkpt lat="46.1839398" lon="11.1648887"><ele>937.2</ele></trkpt>
    <trkpt lat="46.1841342" lon="11.1650481"><ele>937.7</ele></trkpt>
    <trkpt lat="46.1843316" lon="11.1652056"><ele>937.1</ele></trkpt>
    <trkpt lat="46.1845320" lon="11.1653612"><ele>938.7</ele></trkpt>
    <trkpt lat="46.1847354" lon="11.1655151"><ele>937.1</ele></trkpt>
    <trkpt lat="46.1849416" lon="11.1656671"><ele>937.5</ele></trkpt>
    <trkpt lat="46.1851507" lon="11.1658173"><ele>935.4</ele></trkpt>
    <trkpt lat="46.1853625" lon="11.1659656"><ele>935.9</ele></trkpt>
    <trkpt lat="46.1855772" lon="11.1661121"><ele>935.6</ele></trkpt>
    <trkpt lat="46.1857945" lon="11.1662567"><ele>933.4</ele></trkpt>
    <trkpt lat="46.1860145" lon="11.1663994"><ele>936.7</ele></trkpt>
    <trkpt lat="46.1862372" lon="11.1665403"><ele>935.8</ele></trkpt>
    <trkpt lat="46.1864624" lon="11.1666794"><ele>932.6</ele></trkpt>
    <trkpt lat="46.1866902" lon="11.1668166"><ele>935.1</ele></trkpt>
    <trkpt lat="46.1869204" lon="11.1669519"><ele>933.8</ele></trkpt>
    <trkpt lat="46.1871531" lon="11.1670853"><ele>934.2</ele></trkpt>
    <trkpt lat="46.1873882" lon="11.1672169"><ele>933.8</ele></trkpt>
    <trkpt lat="46.1876257" lon="11.1673466"><ele>931.5</ele></trkpt>
    <trkpt lat="46.1878654" lon="11.1674745"><ele>932.6</ele></trkpt>
    <trkpt lat="46.1881073" lon="11.1676004"><ele>934.2</ele></trkpt>
    <trkpt lat="46.1883515" lon="11.1677245"><ele>931.7</ele></trkpt>
    <trkpt lat="46.1885978" lon="11.1678467"><ele>930.9</ele></trkpt>
    <trkpt lat="46.1888461" lon="11.1679671"><ele>930.2</ele></trkpt>
    <trkpt lat="46.1890965" lon="11.1680855"><ele>930.1</ele></trkpt>
    <trkpt lat="46.1893489" lon="11.1682021"><ele>931.6</ele></trkpt>
    <trkpt lat="46.1896031" lon="11.1683168"><ele>932.8</ele></trkpt>
    <trkpt lat="46.1898592" lon="11.1684296"><ele>931.1</ele></trkpt>
    <trkpt lat="46.1901172" lon="11.1685406"><ele>930.6</ele></trkpt>
    <trkpt lat="46.1903768" lon="11.1686496"><ele>932.5</ele></trkpt>
    <trkpt lat="46.1906382" lon="11.1687568"><ele>929.2</ele></trkpt>
    <trkpt lat="46.1909012" lon="11.1688621"><ele>928.8</ele></trkpt>
    <trkpt lat="46.1911657" lon="11.1689656"><ele>929.8</ele></trkpt>
    <trkpt lat="46.1914317" lon="11.1690672"><ele>929.6</ele></trkpt>
    <trkpt lat="46.1916992" lon="11.1691669"><ele>927.6</ele></trkpt>
    <trkpt lat="46.1919681" lon="11.1692647"><ele>927.1</ele></trkpt>
    <trkpt lat="46.1922383" lon="11.1693607"><ele>928.4</ele></trkpt>
    <trkpt lat="46.1925098" lon="11.1694548"><ele>928.1</ele></trkpt>
    <trkpt lat="46.1927825" lon="11.1695470"><ele>926.1</ele></trkpt>
    <trkpt lat="46.1930563" lon="11.1696374"><ele>927.1</ele></trkpt>
    <trkpt lat="46.1933312" lon="11.1697260"><ele>926.4</ele></trkpt>
    <trkpt lat="46.1936070" lon="11.1698127"><ele>927.2</ele></trkpt>
    <trkpt lat="46.1938839" lon="11.1698975"><ele>926.3</ele></trkpt>
    <trkpt lat="46.1941616" lon="11.1699805"><ele>926.1</ele></trkpt>
    <trkpt lat="46.1944402" lon="11.1700616"><ele>925.5</ele></trkpt>
    <trkpt lat="46.1947195" lon="11.1701410"><ele>926.8</ele></trkpt>
    <trkpt lat="46.1949995" lon="11.1702185"><ele>926.9</ele></trkpt>
    <trkpt lat="46.1952801" lon="11.1702941"><ele>924.7</ele></trkpt>
    <trkpt lat="46.1955613" lon="11.1703680"><ele>925.7</ele></trkpt>
    <trkpt lat="46.1958429" lon="11.1704400"><ele>923.7</ele></trkpt>
    <trkpt lat="46.1961251" lon="11.1705102"><ele>924.3</ele></trkpt>
    <trkpt lat="46.1964075" lon="11.1705786"><ele>924.8</ele></trkpt>
    <trkpt lat="46.1966903" lon="11.1706452"><ele>925.3</ele></trkpt>
    <trkpt lat="46.1969733" lon="11.1707100"><ele>923.0</ele></trkpt>
    <trkpt lat="46.1972565" lon="11.1707731"><ele>923.0</ele></trkpt>
    <trkpt lat="46.1975398" lon="11.1708343"><ele>923.1</ele></trkpt>
    <trkpt lat="46.1978231" lon="11.1708938"><ele>920.9</ele></trkpt>
    <trkpt lat="46.1981063" lon="11.1709515"><ele>922.3</ele></trkpt>
    <trkpt lat="46.1983895" lon="11.1710074"><ele>921.3</ele></trkpt>
    <trkpt lat="46.1986726" lon="11.1710616"><ele>922.1</ele></trkpt>
    <trkpt lat="46.1989553" lon="11.1711140"><ele>920.2</ele></trkpt>
    <trkpt lat="46.1992378" lon="11.1711647"><ele>919.0</ele></trkpt>
    <trkpt lat="46.1995200" lon="11.1712137"><ele>920.9</ele></trkpt>
    <trkpt lat="46.1998017" lon="11.1712609"><ele>920.9</ele></trkpt>
    <trkpt lat="46.2000829" lon="11.1713065"><ele>919.7</ele></trkpt>
    <trkpt lat="46.2003636" lon="11.1713503"><ele>921.0</ele></trkpt>
    <trkpt lat="46.2006436" lon="11.1713924"><ele>921.0</ele></trkpt>
    <trkpt lat="46.2009230" lon="11.1714328"><ele>922.3</ele></trkpt>
    <trkpt lat="46.2012016" lon="11.1714716"><ele>925.2</ele></trkpt>
    <trkpt lat="46.2014794" lon="11.1715087"><ele>924.6</ele></trkpt>
    <trkpt lat="46.2017563" lon="11.1715441"><ele>927.2</ele></trkpt>
    <trkpt lat="46.2020323" lon="11.1715778"><ele>929.6</ele></trkpt>
    <trkpt lat="46.2023072" lon="11.1716100"><ele>932.2</ele></trkpt>
    <trkpt lat="46.2025811" lon="11.1716404"><ele>932.8</ele></trkpt>
    <trkpt lat="46.2028539" lon="11.1716693"><ele>935.0</ele></trkpt>
    <trkpt lat="46.2031254" lon="11.1716966"><ele>935.6</ele></trkpt>
    <trkpt lat="46.2033958" lon="11.1717222"><ele>938.3</ele></trkpt>
    <trkpt lat="46.2036647" lon="11.1717463"><ele>941.5</ele></trkpt>
    <trkpt lat="46.2039323" lon="11.1717687"><ele>940.6</ele></trkpt>
    <trkpt lat="46.2041985" lon="11.1717896"><ele>945.6</ele></trkpt>
    <trkpt lat="46.2044632" lon="11.1718090"><ele>944.0</ele></trkpt>
    <trkpt lat="46.2047263" lon="11.1718268"><ele>946.3</ele></trkpt>
    <trkpt lat="46.2049877" lon="11.1718430"><ele>948.2</ele></trkpt>
    <trkpt lat="46.2052475" lon="11.1718578"><ele>950.8</ele></trkpt>
    <trkpt lat="46.2055056" lon="11.1718710"><ele>950.0</ele></trkpt>
    <trkpt lat="46.2057619" lon="11.1718827"><ele>950.7</ele></trkpt>
    <trkpt lat="46.2060163" lon="11.1718930"><ele>955.3</ele></trkpt>
    <trkpt lat="46.2062688" lon="11.1719017"><ele>957.2</ele></trkpt>
    <trkpt lat="46.2065193" lon="11.1719090"><ele>958.7</ele></trkpt>
    <trkpt lat="46.2067678" lon="11.1719149"><ele>962.6</ele></trkpt>
    <trkpt lat="46.2070143" lon="11.1719193"><ele>961.6</ele></trkpt>
    <trkpt lat="46.2072586" lon="11.1719223"><ele>963.3</ele></trkpt>
    <trkpt lat="46.2075007" lon="11.1719239"><ele>965.7</ele></trkpt>
    <trkpt lat="46.2077406" lon="11.1719241"><ele>966.8</ele></trkpt>
    <trkpt lat="46.2079782" lon="11.1719229"><ele>969.9</ele></trkpt>
    <trkpt lat="46.2082135" lon="11.1719203"><ele>968.3</ele></trkpt>
    <trkpt lat="46.2084464" lon="11.1719164"><ele>970.9</ele></trkpt>
    <trkpt lat="46.2086768" lon="11.1719112"><ele>969.2</ele></trkpt>
    <trkpt lat="46.2089048" lon="11.1719046"><ele>975.6</ele></trkpt>
    <trkpt lat="46.2091302" lon="11.1718967"><ele>976.0</ele></trkpt>
    <trkpt lat="46.2093531" lon="11.1718875"><ele>979.0</ele></trkpt>
    <trkpt lat="46.2095733" lon="11.1718770"><ele>982.1</ele></trkpt>
    <trkpt lat="46.2097908" lon="11.1718653"><ele>981.4</ele></trkpt>
    <trkpt lat="46.2100057" lon="11.1718523"><ele>982.8</ele></trkpt>
    <trkpt lat="46.2102178" lon="11.1718381"><ele>984.2</ele></trkpt>
    <trkpt lat="46.2104270" lon="11.1718226"><ele>985.5</ele></trkpt>
    <trkpt lat="46.2106335" lon="11.1718060"><ele>987.3</ele></trkpt>
    <trkpt lat="46.2108370" lon="11.1717881"><ele>990.4</ele></trkpt>
    <trkpt lat="46.2110377" lon="11.1717691"><ele>991.4</ele></trkpt>
    <trkpt lat="46.2112353" lon="11.1717489"><ele>993.1</ele></trkpt>
    <trkpt lat="46.2114300" lon="11.1717276"><ele>994.5</ele></trkpt>
    <trkpt lat="46.2116217" lon="11.1717051"><ele>997.4</ele></trkpt>
    <trkpt lat="46.2118102" lon="11.1716816"><ele>998.6</ele></trkpt>
    <trkpt lat="46.2119957" lon="11.1716569"><ele>999.6</ele></trkpt>
    <trkpt lat="46.2121780" lon="11.1716312"><ele>1002.1</ele></trkpt>
    <trkpt lat="46.2123571" lon="11.1716044"><ele>1002.9</ele></trkpt>
    <trkpt lat="46.2125331" lon="11.1715766"><ele>1003.5</ele></trkpt>
    <trkpt lat="46.2127058" lon="11.1715477"><ele>1008.0</ele></trkpt>
    <trkpt lat="46.2128752" lon="11.1715179"><ele>1008.6</ele></trkpt>
    <trkpt lat="46.2130414" lon="11.1714870"><ele>1008.7</ele></trkpt>
    <trkpt lat="46.2132042" lon="11.1714552"><ele>1012.6</ele></trkpt>
    <trkpt lat="46.2133637" lon="11.1714224"><ele>1013.4</ele></trkpt>
    <trkpt lat="46.2135198" lon="11.1713886"><ele>1013.0</ele></trkpt>
    <trkpt lat="46.2136725" lon="11.1713540"><ele>1018.2</ele></trkpt>
    <trkpt lat="46.2138218" lon="11.1713184"><ele>1018.4</ele></trkpt>
    <trkpt lat="46.2139677" lon="11.1712820"><ele>1020.7</ele></trkpt>
    <trkpt lat="46.2141101" lon="11.1712447"><ele>1021.6</ele></trkpt>
    <trkpt lat="46.2142490" lon="11.1712065"><ele>1022.9</ele></trkpt>
    <trkpt lat="46.2143844" lon="11.1711675"><ele>1023.0</ele></trkpt>
    <trkpt lat="46.2145163" lon="11.1711277"><ele>1027.5</ele></trkpt>
    <trkpt lat="46.2146447" lon="11.1710871"><ele>1028.1</ele></trkpt>
    <trkpt lat="46.2147695" lon="11.1710457"><ele>1029.4</ele></trkpt>
    <trkpt lat="46.2148908" lon="11.1710036"><ele>1031.8</ele></trkpt>
    <trkpt lat="46.2150085" lon="11.1709607"><ele>1033.2</ele></trkpt>
    <trkpt lat="46.2151226" lon="11.1709171"><ele>1035.5</ele></trkpt>
    <trkpt lat="46.2152331" lon="11.1708728"><ele>1036.0</ele></trkpt>
    <trkpt lat="46.2153400" lon="11.1708278"><ele>1038.1</ele></trkpt>
    <trkpt lat="46.2154433" lon="11.1707822"><ele>1037.4</ele></trkpt>
    <trkpt lat="46.2155430" lon="11.1707359"><ele>1041.0</ele></trkpt>
    <trkpt lat="46.2156390" lon="11.1706889"><ele>1043.8</ele></trkpt>
    <trkpt lat="46.2157315" lon="11.1706414"><ele>1046.2</ele></trkpt>
    <trkpt lat="46.2158203" lon="11.1705933"><ele>1046.0</ele></trkpt>
    <trkpt lat="46.2159054" lon="11.1705446"><ele>1048.0</ele></trkpt>
    <trkpt lat="46.2159870" lon="11.1704954"><ele>1051.5</ele></trkpt>
    <trkpt lat="46.2160649" lon="11.1704456"><ele>1051.1</ele></trkpt>
    <trkpt lat="46.2161392" lon="11.1703953"><ele>1053.9</ele></trkpt>
    <trkpt lat="46.2162098" lon="11.1703446"><ele>1056.6</ele></trkpt>
    <trkpt lat="46.2162769" lon="11.1702934"><ele>1056.5</ele></trkpt>
    <trkpt lat="46.2163403" lon="11.1702417"><ele>1059.5</ele></trkpt>
    <trkpt lat="46.2164001" lon="11.1701896"><ele>1059.0</ele></trkpt>
    <trkpt lat="46.2164563" lon="11.1701370"><ele>1061.7</ele></trkpt>
    <trkpt lat="46.2165089" lon="11.1700841"><ele>1063.0</ele></trkpt>
    <trkpt lat="46.2165579" lon="11.1700308"><ele>1064.9</ele></trkpt>
    <trkpt lat="46.2166034" lon="11.1699772"><ele>1067.7</ele></trkpt>
    <trkpt lat="46.2166452" lon="11.1699232"><ele>1070.8</ele></trkpt>
    <trkpt lat="46.2166836" lon="11.1698689"><ele>1069.1</ele></trkpt>
    <trkpt lat="46.2167184" lon="11.1698143"><ele>1070.8</ele></trkpt>
    <trkpt lat="46.2167497" lon="11.1697595"><ele>1073.7</ele></trkpt>
    <trkpt lat="46.2167775" lon="11.1697044"><ele>1073.6</ele></trkpt>
    <trkpt lat="46.2168018" lon="11.1696491"><ele>1077.0</ele></trkpt>
    <trkpt lat="46.2168227" lon="11.1695935"><ele>1078.8</ele></trkpt>
    <trkpt lat="46.2168401" lon="11.1695378"><ele>1079.5</ele></trkpt>
    <trkpt lat="46.2168541" lon="11.1694819"><ele>1082.1</ele></trkpt>
    <trkpt lat="46.2168647" lon="11.1694259"><ele>1081.4</ele></trkpt>
    <trkpt lat="46.2168720" lon="11.1693697"><ele>1085.7</ele></trkpt>
    <trkpt lat="46.2168759" lon="11.1693134"><ele>1084.8</ele></trkpt>
    <trkpt lat="46.2168764" lon="11.1692570"><ele>1087.4</ele></trkpt>
    <trkpt lat="46.2168737" lon="11.1692006"><ele>1089.2</ele></trkpt>
    <trkpt lat="46.2168677" lon="11.1691441"><ele>1091.0</ele></trkpt>
    <trkpt lat="46.2168585" lon="11.1690875"><ele>1094.1</ele></trkpt>
    <trkpt lat="46.2168461" lon="11.1690310"><ele>1094.9</ele></trkpt>
    <trkpt lat="46.2168305" lon="11.1689745"><ele>1096.1</ele></trkpt>
    <trkpt lat="46.2168118" lon="11.1689180"><ele>1098.8</ele></trkpt>
    <trkpt lat="46.2167900" lon="11.1688616"><ele>1101.6</ele></trkpt>
    <trkpt lat="46.2167651" lon="11.1688052"><ele>1097.2</ele></trkpt>
    <trkpt lat="46.2167371" lon="11.1687489"><ele>1094.5</ele></trkpt>
    <trkpt lat="46.2167062" lon="11.1686928"><ele>1092.3</ele></trkpt>
    <trkpt lat="46.2166723" lon="11.1686368"><ele>1088.1</ele></trkpt>
    <trkpt lat="46.2166355" lon="11.1685809"><ele>1083.3</ele></trkpt>
    <trkpt lat="46.2165958" lon="11.1685252"><ele>1084.4</ele></trkpt>
    <trkpt lat="46.2165532" lon="11.1684697"><ele>1080.9</ele></trkpt>
    <trkpt lat="46.2165079" lon="11.1684145"><ele>1073.2</ele></trkpt>
    <trkpt lat="46.2164598" lon="11.1683594"><ele>1072.2</ele></trkpt>
    <trkpt lat="46.2164090" lon="11.1683046"><ele>1069.6</ele></trkpt>
    <trkpt lat="46.2163555" lon="11.1682501"><ele>1067.1</ele></trkpt>
    <trkpt lat="46.2162994" lon="11.1681959"><ele>1063.7</ele></trkpt>
    <trkpt lat="46.2162408" lon="11.1681420"><ele>1059.5</ele></trkpt>
    <trkpt lat="46.2161795" lon="11.1680884"><ele>1055.5</ele></trkpt>
    <trkpt lat="46.2161159" lon="11.1680352"><ele>1053.7</ele></trkpt>
    <trkpt lat="46.2160497" lon="11.1679824"><ele>1051.6</ele></trkpt>
    <trkpt lat="46.2159812" lon="11.1679300"><ele>1046.2</ele></trkpt>
    <trkpt lat="46.2159104" lon="11.1678780"><ele>1043.1</ele></trkpt>
    <trkpt lat="46.2158372" lon="11.1678264"><ele>1041.1</ele></trkpt>
    <trkpt lat="46.2157619" lon="11.1677753"><ele>1035.9</ele></trkpt>
    <trkpt lat="46.2156843" lon="11.1677246"><ele>1034.6</ele></trkpt>
    <trkpt lat="46.2156047" lon="11.1676745"><ele>1031.3</ele></trkpt>
    <trkpt lat="46.2155229" lon="11.1676248"><ele>1029.2</ele></trkpt>
    <trkpt lat="46.2154392" lon="11.1675757"><ele>1024.8</ele></trkpt>
    <trkpt lat="46.2153534" lon="11.1675272"><ele>1021.5</ele></trkpt>
    <trkpt lat="46.2152658" lon="11.1674792"><ele>1018.9</ele></trkpt>
    <trkpt lat="46.2151763" lon="11.1674318"><ele>1016.2</ele></trkpt>
    <trkpt lat="46.2150851" lon="11.1673850"><ele>1012.4</ele></trkpt>
    <trkpt lat="46.2149920" lon="11.1673389"><ele>1010.0</ele></trkpt>
    <trkpt lat="46.2148974" lon="11.1672934"><ele>1007.7</ele></trkpt>
    <trkpt lat="46.2148011" lon="11.1672485"><ele>1005.1</ele></trkpt>
    <trkpt lat="46.2147032" lon="11.1672044"><ele>1002.5</ele></trkpt>
    <trkpt lat="46.2146038" lon="11.1671610"><ele>996.7</ele></trkpt>
    <trkpt lat="46.2145030" lon="11.1671183"><ele>994.0</ele></trkpt>
    <trkpt lat="46.2144008" lon="11.1670763"><ele>988.6</ele></trkpt>
    <trkpt lat="46.2142973" lon="11.1670351"><ele>990.3</ele></trkpt>
    <trkpt lat="46.2141926" lon="11.1669947"><ele>984.3</ele></trkpt>
    <trkpt lat="46.2140866" lon="11.1669550"><ele>981.9</ele></trkpt>
    <trkpt lat="46.2139795" lon="11.1669162"><ele>979.4</ele></trkpt>
    <trkpt lat="46.2138714" lon="11.1668783"><ele>974.2</ele></trkpt>
    <trkpt lat="46.2137622" lon="11.1668412"><ele>973.1</ele></trkpt>
    <trkpt lat="46.2136521" lon="11.1668049"><ele>969.5</ele></trkpt>
    <trkpt lat="46.2135412" lon="11.1667696"><ele>964.4</ele></trkpt>
    <trkpt lat="46.2134294" lon="11.1667351"><ele>963.6</ele></trkpt>
    <trkpt lat="46.2133168" lon="11.1667016"><ele>961.5</ele></trkpt>
    <trkpt lat="46.2132036" lon="11.1666691"><ele>955.0</ele></trkpt>
    <trkpt lat="46.2130898" lon="11.1666375"><ele>954.8</ele></trkpt>
    <trkpt lat="46.2129754" lon="11.1666068"><ele>951.0</ele></trkpt>
    <trkpt lat="46.2128605" lon="11.1665772"><ele>948.2</ele></trkpt>
    <trkpt lat="46.2127452" lon="11.1665486"><ele>945.1</ele></trkpt>
    <trkpt lat="46.2126296" lon="11.1665210"><ele>942.9</ele></trkpt>
    <trkpt lat="46.2125136" lon="11.1664944"><ele>938.1</ele></trkpt>
    <trkpt lat="46.2123974" lon="11.1664690"><ele>936.2</ele></trkpt>
    <trkpt lat="46.2122811" lon="11.1664446"><ele>931.7</ele></trkpt>
    <trkpt lat="46.2121647" lon="11.1664213"><ele>929.8</ele></trkpt>
    <trkpt lat="46.2120482" lon="11.1663991"><ele>925.0</ele></trkpt>
    <trkpt lat="46.2119318" lon="11.1663780"><ele>922.7</ele></trkpt>
    <trkpt lat="46.2118155" lon="11.1663581"><ele>921.6</ele></trkpt>
    <trkpt lat="46.2116993" lon="11.1663394"><ele>917.0</ele></trkpt>
    <trkpt lat="46.2115834" lon="11.1663218"><ele>913.3</ele></trkpt>
    <trkpt lat="46.2114678" lon="11.1663054"><ele>909.1</ele></trkpt>
    <trkpt lat="46.2113526" lon="11.1662903"><ele>906.3</ele></trkpt>
    <trkpt lat="46.2112377" lon="11.1662763"><ele>904.3</ele></trkpt>
    <trkpt lat="46.2111234" lon="11.1662636"><ele>902.0</ele></trkpt>
    <trkpt lat="46.2110097" lon="11.1662522"><ele>898.3</ele></trkpt>
    <trkpt lat="46.2108966" lon="11.1662420"><ele>895.3</ele></trkpt>
    <trkpt lat="46.2107841" lon="11.1662331"><ele>891.6</ele></trkpt>
    <trkpt lat="46.2106725" lon="11.1662255"><ele>890.0</ele></trkpt>
    <trkpt lat="46.2105616" lon="11.1662192"><ele>885.0</ele></trkpt>
    <trkpt lat="46.2104517" lon="11.1662143"><ele>881.7</ele></trkpt>
    <trkpt lat="46.2103427" lon="11.1662107"><ele>880.2</ele></trkpt>
    <trkpt lat="46.2102347" lon="11.1662085"><ele>876.1</ele></trkpt>
    <trkpt lat="46.2101278" lon="11.1662076"><ele>872.6</ele></trkpt>
    <trkpt lat="46.2100220" lon="11.1662081"><ele>869.2</ele></trkpt>
    <trkpt lat="46.2099174" lon="11.1662100"><ele>866.4</ele></trkpt>
    <trkpt lat="46.2098141" lon="11.1662133"><ele>864.3</ele></trkpt>
    <trkpt lat="46.2097122" lon="11.1662181"><ele>860.9</ele></trkpt>
    <trkpt lat="46.2096116" lon="11.1662243"><ele>856.0</ele></trkpt>
    <trkpt lat="46.2095124" lon="11.1662319"><ele>854.7</ele></trkpt>
    <trkpt lat="46.2094148" lon="11.1662410"><ele>851.3</ele></trkpt>
    <trkpt lat="46.2093187" lon="11.1662516"><ele>846.9</ele></trkpt>
    <trkpt lat="46.2092243" lon="11.1662637"><ele>845.8</ele></trkpt>
    <trkpt lat="46.2091316" lon="11.1662773"><ele>841.5</ele></trkpt>
    <trkpt lat="46.2090406" lon="11.1662924"><ele>838.3</ele></trkpt>
    <trkpt lat="46.2089514" lon="11.1663090"><ele>836.4</ele></trkpt>
    <trkpt lat="46.2088640" lon="11.1663272"><ele>833.9</ele></trkpt>
    <trkpt lat="46.2087786" lon="11.1663469"><ele>828.6</ele></trkpt>
    <trkpt lat="46.2086951" lon="11.1663681"><ele>826.7</ele></trkpt>
    <trkpt lat="46.2086137" lon="11.1663910"><ele>822.2</ele></trkpt>
    <trkpt lat="46.2085344" lon="11.1664154"><ele>822.5</ele></trkpt>
  </trkseg></trk>
</gpx>
